{"type": "FeatureCollection", "features": [{"type": "Feature", "properties": {"norad_id": 28054, "name": "DMSP 5D-3 F16 (USA 172)", "group": "weather", "lat": -79.23381511884538, "lon": 73.6695145293702, "alt_km": 847.0683239524142, "timestamp": "2025-12-25T14:48:24.448121+00:00", "meta": {"OBJECT_NAME": "DMSP 5D-3 F16 (USA 172)", "OBJECT_ID": "2003-048A", "EPOCH": "2025-12-25T06:59:56.262624", "MEAN_MOTION": 14.14428544, "ECCENTRICITY": 0.00062438, "INCLINATION": 99.0038, "RA_OF_ASC_NODE": 16.8468, "ARG_OF_PERICENTER": 280.5436, "MEAN_ANOMALY": 139.7708, "EPHEMERIS_TYPE": 0, "CLASSIFICATION_TYPE": "U", "NORAD_CAT_ID": 28054, "ELEMENT_SET_NO": 999, "REV_AT_EPOCH": 14490, "BSTAR": 8.0326006e-05, "MEAN_MOTION_DOT": 1.08e-06, "MEAN_MOTION_DDOT": 0}, "tle": {"line1": "1 28054U 03048A   25359.29162341  .00000108  00000+0  80326-4 0  9997", "line2": "2 28054  99.0038  16.8468 0006243 280.5436 139.7708 14.14428544144906"}}, "geometry": {"type": "Point", "coordinates": [73.6695145293702, -79.23381511884538]}}, {"type": "Feature", "properties": {"norad_id": 28912, "name": "METEOSAT-9 (MSG-2)", "group": "weather", "lat": -7.266532748004076, "lon": 1.9449311982617858, "alt_km": 35510.28191356694, "timestamp": "2025-12-25T14:48:24.448173+00:00", "meta": {"OBJECT_NAME": "METEOSAT-9 (MSG-2)", "OBJECT_ID": "2005-049B", "EPOCH": "2025-12-24T18:27:10.310976", "MEAN_MOTION": 1.00268275, "ECCENTRICITY": 0.00719695, "INCLINATION": 8.9553, "RA_OF_ASC_NODE": 55.846, "ARG_OF_PERICENTER": 282.2974, "MEAN_ANOMALY": 77.0088, "EPHEMERIS_TYPE": 0, "CLASSIFICATION_TYPE": "U", "NORAD_CAT_ID": 28912, "ELEMENT_SET_NO": 999, "REV_AT_EPOCH": 524, "BSTAR": 0, "MEAN_MOTION_DOT": 1.45e-06, "MEAN_MOTION_DDOT": 0}, "tle": {"line1": "1 28912U 05049B   25358.76886934  .00000145  00000+0  00000+0 0  9992", "line2": "2 28912   8.9553  55.8460 0071969 282.2974  77.0088  1.00268275  5240"}}, "geometry": {"type": "Point", "coordinates": [1.9449311982617858, -7.266532748004076]}}, {"type": "Feature", "properties": {"norad_id": 29522, "name": "DMSP 5D-3 F17 (USA 191)", "group": "weather", "lat": -58.039436840396895, "lon": 170.46483487632088, "alt_km": 845.2581886276594, "timestamp": "2025-12-25T14:48:24.448188+00:00", "meta": {"OBJECT_NAME": "DMSP 5D-3 F17 (USA 191)", "OBJECT_ID": "2006-050A", "EPOCH": "2025-12-25T05:11:41.541792", "MEAN_MOTION": 14.14924728, "ECCENTRICITY": 0.0009942, "INCLINATION": 98.7393, "RA_OF_ASC_NODE": 4.3457, "ARG_OF_PERICENTER": 187.6997, "MEAN_ANOMALY": 172.4026, "EPHEMERIS_TYPE": 0, "CLASSIFICATION_TYPE": "U", "NORAD_CAT_ID": 29522, "ELEMENT_SET_NO": 999, "REV_AT_EPOCH": 98781, "BSTAR": 0.00010165294, "MEAN_MOTION_DOT": 1.53e-06, "MEAN_MOTION_DDOT": 0}, "tle": {"line1": "1 29522U 06050A   25359.21645303  .00000153  00000+0  10165-3 0  9993", "line2": "2 29522  98.7393   4.3457 0009942 187.6997 172.4026 14.14924728987812"}}, "geometry": {"type": "Point", "coordinates": [170.46483487632088, -58.039436840396895]}}, {"type": "Feature", "properties": {"norad_id": 32958, "name": "FENGYUN 3A", "group": "weather", "lat": 14.18432244908443, "lon": 121.08407338956334, "alt_km": 829.1308958493837, "timestamp": "2025-12-25T14:48:24.448200+00:00", "meta": {"OBJECT_NAME": "FENGYUN 3A", "OBJECT_ID": "2008-026A", "EPOCH": "2025-12-25T07:15:43.176384", "MEAN_MOTION": 14.19518489, "ECCENTRICITY": 0.00076056, "INCLINATION": 98.6714, "RA_OF_ASC_NODE": 298.5658, "ARG_OF_PERICENTER": 269.6789, "MEAN_ANOMALY": 90.3516, "EPHEMERIS_TYPE": 0, "CLASSIFICATION_TYPE": "U", "NORAD_CAT_ID": 32958, "ELEMENT_SET_NO": 999, "REV_AT_EPOCH": 91073, "BSTAR": 8.4979226e-05, "MEAN_MOTION_DOT": 1.36e-06, "MEAN_MOTION_DDOT": 0}, "tle": {"line1": "1 32958U 08026A   25359.30258306  .00000136  00000+0  84979-4 0  9994", "line2": "2 32958  98.6714 298.5658 0007605 269.6789  90.3516 14.19518489910736"}}, "geometry": {"type": "Point", "coordinates": [121.08407338956334, 14.18432244908443]}}, {"type": "Feature", "properties": {"norad_id": 35491, "name": "GOES 14", "group": "weather", "lat": 1.1328516640926871, "lon": -161.4001951765916, "alt_km": 35834.406437515754, "timestamp": "2025-12-25T14:48:24.448214+00:00", "meta": {"OBJECT_NAME": "GOES 14", "OBJECT_ID": "2009-033A", "EPOCH": "2025-12-25T06:10:38.820000", "MEAN_MOTION": 1.00097043, "ECCENTRICITY": 6.808e-05, "INCLINATION": 1.2344, "RA_OF_ASC_NODE": 85.2768, "ARG_OF_PERICENTER": 191.8566, "MEAN_ANOMALY": 151.906, "EPHEMERIS_TYPE": 0, "CLASSIFICATION_TYPE": "U", "NORAD_CAT_ID": 35491, "ELEMENT_SET_NO": 999, "REV_AT_EPOCH": 484, "BSTAR": 0, "MEAN_MOTION_DOT": 3.7e-07, "MEAN_MOTION_DDOT": 0}, "tle": {"line1": "1 35491U 09033A   25359.25739375  .00000037  00000+0  00000+0 0  9990", "line2": "2 35491   1.2344  85.2768 0000680 191.8566 151.9060  1.00097043  4846"}}, "geometry": {"type": "Point", "coordinates": [-161.4001951765916, 1.1328516640926871]}}, {"type": "Feature", "properties": {"norad_id": 35951, "name": "DMSP 5D-3 F18 (USA 210)", "group": "weather", "lat": 76.8075275684046, "lon": -162.1849874756467, "alt_km": 833.0616240241279, "timestamp": "2025-12-25T14:48:24.448225+00:00", "meta": {"OBJECT_NAME": "DMSP 5D-3 F18 (USA 210)", "OBJECT_ID": "2009-057A", "EPOCH": "2025-12-25T05:51:04.439232", "MEAN_MOTION": 14.14777356, "ECCENTRICITY": 0.00116911, "INCLINATION": 98.885, "RA_OF_ASC_NODE": 335.5829, "ARG_OF_PERICENTER": 29.6912, "MEAN_ANOMALY": 330.4922, "EPHEMERIS_TYPE": 0, "CLASSIFICATION_TYPE": "U", "NORAD_CAT_ID": 35951, "ELEMENT_SET_NO": 999, "REV_AT_EPOCH": 83499, "BSTAR": 0.00016719124, "MEAN_MOTION_DOT": 2.78e-06, "MEAN_MOTION_DDOT": 0}, "tle": {"line1": "1 35951U 09057A   25359.24380138  .00000278  00000+0  16719-3 0  9990", "line2": "2 35951  98.8850 335.5829 0011691  29.6912 330.4922 14.14777356834996"}}, "geometry": {"type": "Point", "coordinates": [-162.1849874756467, 76.8075275684046]}}, {"type": "Feature", "properties": {"norad_id": 36411, "name": "EWS-G2 (GOES 15)", "group": "weather", "lat": -0.7814421748294593, "lon": 17.882987334533926, "alt_km": 35795.43675197491, "timestamp": "2025-12-25T14:48:24.448238+00:00", "meta": {"OBJECT_NAME": "EWS-G2 (GOES 15)", "OBJECT_ID": "2010-008A", "EPOCH": "2025-12-24T23:39:47.870208", "MEAN_MOTION": 1.00271022, "ECCENTRICITY": 0.00055831, "INCLINATION": 0.8419, "RA_OF_ASC_NODE": 86.0741, "ARG_OF_PERICENTER": 179.0793, "MEAN_ANOMALY": 244.9011, "EPHEMERIS_TYPE": 0, "CLASSIFICATION_TYPE": "U", "NORAD_CAT_ID": 36411, "ELEMENT_SET_NO": 999, "REV_AT_EPOCH": 5789, "BSTAR": 0, "MEAN_MOTION_DOT": 5.9e-07, "MEAN_MOTION_DDOT": 0}, "tle": {"line1": "1 36411U 10008A   25358.98597072  .00000059  00000+0  00000+0 0  9996", "line2": "2 36411   0.8419  86.0741 0005583 179.0793 244.9011  1.00271022 57897"}}, "geometry": {"type": "Point", "coordinates": [17.882987334533926, -0.7814421748294593]}}, {"type": "Feature", "properties": {"norad_id": 36744, "name": "COMS 1", "group": "weather", "lat": 0.533556988430334, "lon": 84.62527838654883, "alt_km": 35789.7993559329, "timestamp": "2025-12-25T14:48:24.448251+00:00", "meta": {"OBJECT_NAME": "COMS 1", "OBJECT_ID": "2010-032A", "EPOCH": "2025-12-24T22:38:51.746208", "MEAN_MOTION": 1.00270195, "ECCENTRICITY": 8.62e-05, "INCLINATION": 4.3676, "RA_OF_ASC_NODE": 77.8605, "ARG_OF_PERICENTER": 214.3795, "MEAN_ANOMALY": 269.3601, "EPHEMERIS_TYPE": 0, "CLASSIFICATION_TYPE": "U", "NORAD_CAT_ID": 36744, "ELEMENT_SET_NO": 999, "REV_AT_EPOCH": 4934, "BSTAR": 0, "MEAN_MOTION_DOT": -3.25e-06, "MEAN_MOTION_DDOT": 0}, "tle": {"line1": "1 36744U 10032A   25358.94365447 -.00000325  00000+0  00000+0 0  9994", "line2": "2 36744   4.3676  77.8605 0000862 214.3795 269.3601  1.00270195 49344"}}, "geometry": {"type": "Point", "coordinates": [84.62527838654883, 0.533556988430334]}}, {"type": "Feature", "properties": {"norad_id": 37214, "name": "FENGYUN 3B", "group": "weather", "lat": 63.85443585385828, "lon": 20.872218473155623, "alt_km": 840.6362520076245, "timestamp": "2025-12-25T14:48:24.448263+00:00", "meta": {"OBJECT_NAME": "FENGYUN 3B", "OBJECT_ID": "2010-059A", "EPOCH": "2025-12-25T06:38:20.507136", "MEAN_MOTION": 14.14793802, "ECCENTRICITY": 0.00214949, "INCLINATION": 98.9886, "RA_OF_ASC_NODE": 39.3403, "ARG_OF_PERICENTER": 321.7074, "MEAN_ANOMALY": 171.0548, "EPHEMERIS_TYPE": 0, "CLASSIFICATION_TYPE": "U", "NORAD_CAT_ID": 37214, "ELEMENT_SET_NO": 999, "REV_AT_EPOCH": 78283, "BSTAR": 0.0002139391, "MEAN_MOTION_DOT": 3.68e-06, "MEAN_MOTION_DDOT": 0}, "tle": {"line1": "1 37214U 10059A   25359.27662624  .00000368  00000+0  21394-3 0  9999", "line2": "2 37214  98.9886  39.3403 0021494 321.7074 171.0548 14.14793802782836"}}, "geometry": {"type": "Point", "coordinates": [20.872218473155623, 63.85443585385828]}}, {"type": "Feature", "properties": {"norad_id": 37849, "name": "SUOMI NPP", "group": "weather", "lat": 54.51309387556772, "lon": 129.3607905427271, "alt_km": 820.2277798581199, "timestamp": "2025-12-25T14:48:24.448274+00:00", "meta": {"OBJECT_NAME": "SUOMI NPP", "OBJECT_ID": "2011-061A", "EPOCH": "2025-12-22T15:10:21.732672", "MEAN_MOTION": 14.19516903, "ECCENTRICITY": 0.00024883, "INCLINATION": 98.7787, "RA_OF_ASC_NODE": 293.8852, "ARG_OF_PERICENTER": 103.0781, "MEAN_ANOMALY": 257.0673, "EPHEMERIS_TYPE": 0, "CLASSIFICATION_TYPE": "U", "NORAD_CAT_ID": 37849, "ELEMENT_SET_NO": 999, "REV_AT_EPOCH": 73339, "BSTAR": 6.3406935e-05, "MEAN_MOTION_DOT": 8.9e-07, "MEAN_MOTION_DDOT": 0}, "tle": {"line1": "1 37849U 11061A   25356.63219598  .00000089  00000+0  63407-4 0  9994", "line2": "2 37849  98.7787 293.8852 0002488 103.0781 257.0673 14.19516903733392"}}, "geometry": {"type": "Point", "coordinates": [129.3607905427271, 54.51309387556772]}}]}